ORBCOMM FM05            
1 25117U 97084F   25266.66348718  .00003439  00000+0  99095-3 0  9991
2 25117  45.0132 255.1343 0004093 320.0984  39.9566 14.46235773454865
ORBCOMM FM06            
1 25118U 97084G   25266.39914068  .00003910  00000+0  11177-2 0  9997
2 25118  45.0126 256.0308 0003259 309.2785 204.2333 14.46384900455745
ORBCOMM FM07            
1 25119U 97084H   25266.65917186  .00003396  00000+0  97586-3 0  9998
2 25119  45.0121 255.5434 0004915 322.6078  37.4431 14.46394370455779
ORBCOMM FM03            
1 25158U 98007B   25266.93153308  .00001881  00000+0  70250-3 0  9992
2 25158 107.9638 338.4811 0042598  76.1424 284.4450 14.34713801438203
ORBCOMM FM04            
1 25159U 98007C   25266.89883108  .00001734  00000+0  64941-3 0  9993
2 25159 107.9625 341.7005 0038371  73.4219 287.1130 14.34957624438385
ORBCOMM FM17            
1 25413U 98046A   25266.96708304  .00001595  00000+0  60088-3 0  9994
2 25413  44.9935 151.3556 0003845 353.9794   6.1006 14.35273522417365
ORBCOMM FM18            
1 25414U 98046B   25266.47102379  .00002521  00000+0  85813-3 0  9994
2 25414  44.9929  68.4475 0004526  70.8659 289.2679 14.38797019418400
ORBCOMM FM19            
1 25415U 98046C   25266.50844207  .00002304  00000+0  79153-3 0  9991
2 25415  44.9937  70.4221 0003275  69.6836 332.8297 14.38608252418361
